OBJECT_NAME,OBJECT_ID,EPOCH,MEAN_MOTION,ECCENTRICITY,INCLINATION,RA_OF_ASC_NODE,ARG_OF_PERICENTER,MEAN_ANOMALY,EPHEMERIS_TYPE,CLASSIFICATION_TYPE,NORAD_CAT_ID,ELEMENT_SET_NO,REV_AT_EPOCH,BSTAR,MEAN_MOTION_DOT,MEAN_MOTION_DDOT
DUBAISAT-1,2009-041B,2026-06-13T21:37:23.095200,14.75118466,.00117279,98.0048,298.1949,83.0572,277.1971,0,U,35682,999,90461,.10842021E-3,.681E-5,0
OCEANSAT-2,2009-051A,2026-06-13T21:52:07.701600,13.99664799,.00149593,98.2324,152.0894,245.9047,114.0555,0,U,35931,999,87887,-.15567968E-4,-.6E-6,0
WORLDVIEW-2 (WV-2),2009-055A,2026-06-13T21:26:17.016000,14.37898569,.00035172,98.4736,238.3882,219.4562,140.6370,0,U,35946,999,87517,.53272763E-4,.117E-5,0
SMOS,2009-059A,2026-06-13T18:49:18.520896,14.39770965,.00013227,98.4424,352.1691,89.6472,270.4868,0,U,36036,999,87296,.88782143E-4,.235E-5,0
YAOGAN-7,2009-069A,2026-06-13T16:53:29.393952,14.78006843,.00257431,98.0076,50.5922,52.4849,307.8696,0,U,36110,999,88911,.74698622E-4,.489E-5,0
TANDEM-X,2010-030A,2026-06-13T08:54:45.777024,15.19145408,.0001853,97.4453,172.1345,92.9116,267.2331,0,U,36605,999,88606,.29649083E-4,.556E-5,0
CARTOSAT-2B,2010-035A,2026-06-13T22:56:54.862656,14.78656059,.0010928,97.9960,215.5263,194.4818,165.6082,0,U,36795,999,85937,.5143732E-4,.325E-5,0
YAOGAN-10,2010-038A,2026-06-13T23:42:02.631744,14.85341845,.00017185,97.8979,188.4171,87.9239,358.0369,0,U,36834,999,85673,.22192652E-3,.1854E-4,0
COSMO-SKYMED 4,2010-060A,2026-06-13T22:23:48.668352,14.82152073,.00014078,97.8882,348.5805,82.8555,277.2818,0,U,37216,999,84408,.1171992E-3,.881E-5,0
RESOURCESAT-2,2011-015A,2026-06-13T22:07:22.640448,14.21605768,.00101514,98.7644,232.3861,266.0050,93.9967,0,U,37387,999,78571,.55197898E-4,.77E-6,0
HAIYANG-2A,2011-043A,2026-06-13T23:32:33.050976,13.74458932,.00062025,99.3391,167.7275,96.8293,263.3562,0,U,37781,999,74621,.28164301E-4,-.17E-6,0
RASAT,2011-044D,2026-06-13T23:53:22.426944,14.68163426,.00198979,98.0574,256.4410,199.1114,334.0369,0,U,37791,999,79271,.89563246E-4,.467E-5,0
SRMSAT,2011-058D,2026-06-13T11:49:26.315616,14.11574841,.00118721,19.9718,81.8294,162.9750,353.0513,0,U,37841,999,75729,.51405851E-4,.36E-5,0
PLEIADES 1A,2011-076F,2026-06-13T23:47:26.210112,14.58568651,.00016157,98.1981,240.1367,97.6477,75.7725,0,U,38012,999,77152,.48834549E-4,.181E-5,0
ZIYUAN 1-02C (ZY 1-02C),2011-079A,2026-06-13T23:11:31.383744,14.38211991,.0005677,98.4079,232.3418,327.8622,205.0306,0,U,38038,999,75874,.11852423E-3,.317E-5,0
ARIRANG-3 (KOMPSAT-3),2012-025B,2026-06-13T22:52:47.779392,14.62203644,.00065658,98.1176,122.4690,117.5732,242.6137,0,U,38338,999,75087,.86825996E-4,.391E-5,0
EXACTVIEW-1 (ADS-1B),2012-039C,2026-06-13T22:34:33.731616,14.24983651,.00109852,98.9774,282.2576,175.5247,184.6032,0,U,38709,999,72224,.55187681E-4,.83E-6,0
SPOT 6,2012-047A,2026-06-13T23:21:56.309760,14.58560868,.00014875,98.2126,232.3200,93.1976,266.9393,0,U,38755,999,73258,.53732851E-4,.204E-5,0
PLEIADES 1B,2012-068A,2026-06-13T22:10:23.153376,14.58558281,.0001655,98.1952,240.0202,93.9388,266.2001,0,U,39019,999,72037,.48981046E-4,.182E-5,0
GOKTURK 2,2012-073A,2026-06-13T21:26:45.279168,14.75539400,.00017314,97.6823,2.4908,58.1621,301.9758,0,U,39030,999,72402,.59065464E-4,.355E-5,0
LANDSAT 8,2013-008A,2026-06-13T22:25:46.629408,14.57092663,.00013778,98.2302,235.1083,93.4430,266.6926,0,U,39084,999,69742,.83851296E-4,.332E-5,0
SARAL,2013-009A,2026-06-13T21:33:53.071488,14.32855223,.00008661,98.5556,351.5074,328.9755,31.1378,0,U,39086,999,69513,.49456104E-4,.91E-6,0
GAOFEN-1,2013-018A,2026-06-13T22:41:49.737120,14.76531704,.00157088,97.9101,237.0791,277.8518,82.0908,0,U,39150,999,70776,.27607877E-4,.142E-5,0
VNREDSAT 1,2013-021B,2026-06-13T22:43:31.072224,14.64853898,.00016929,97.9087,218.4874,90.2119,269.9279,0,U,39160,999,69981,.11201823E-3,.553E-5,0
ARIRANG-5 (KOMPSAT-5),2013-042A,2026-06-13T21:46:16.599648,15.04484454,.000512,97.6209,351.6545,128.2809,231.8879,0,U,39227,999,70336,.1213414E-3,.1637E-4,0
SKYSAT-A,2013-066C,2026-06-13T21:13:26.918976,15.12959370,.00203934,97.3818,214.3866,329.5993,30.4054,0,U,39418,999,68798,.1899997E-3,.3302E-4,0
DUBAISAT-2,2013-066D,2026-06-13T22:57:30.296160,15.10162969,.00126923,97.4558,155.1846,51.3051,308.9311,0,U,39419,999,68590,.27807123E-3,.4484E-4,0
GPM-CORE,2014-009C,2026-06-13T21:46:24.132864,15.44505846,.00119884,64.9721,319.1111,250.3832,109.6014,0,U,39574,999,69730,.26257395E-3,.12039E-3,0
SENTINEL-1A,2014-016A,2026-06-13T22:32:03.126048,14.59198006,.00014201,98.1776,172.5188,82.9624,277.1737,0,U,39634,999,64954,-.11413811E-3,-.584E-5,0
KAZEOSAT 1,2014-024A,2026-06-13T21:35:06.871776,14.42077989,.00013919,98.3212,237.4281,74.2070,285.9274,0,U,39731,999,63808,.3651111E-5,-.31E-6,0
