DUBAISAT-1              
1 35682U 09041B   26164.90096175  .00000681  00000+0  10842-3 0  9996
2 35682  98.0048 298.1949 0011727  83.0572 277.1971 14.75118466904617
OCEANSAT-2              
1 35931U 09051A   26164.91120025 -.00000060  00000+0 -15568-4 0  9991
2 35931  98.2324 152.0894 0014959 245.9047 114.0555 13.99664799878871
WORLDVIEW-2 (WV-2)      
1 35946U 09055A   26164.89325250  .00000117  00000+0  53273-4 0  9991
2 35946  98.4736 238.3882 0003517 219.4562 140.6370 14.37898569875174
SMOS                    
1 36036U 09059A   26164.78424214  .00000235  00000+0  88782-4 0  9998
2 36036  98.4424 352.1691 0001322  89.6472 270.4868 14.39770965872960
YAOGAN-7                
1 36110U 09069A   26164.70381243  .00000489  00000+0  74699-4 0  9991
2 36110  98.0076  50.5922 0025743  52.4849 307.8696 14.78006843889116
TANDEM-X                
1 36605U 10030A   26164.37136316  .00000556  00000+0  29649-4 0  9992
2 36605  97.4453 172.1345 0001853  92.9116 267.2331 15.19145408886062
CARTOSAT-2B             
1 36795U 10035A   26164.95619054  .00000325  00000+0  51437-4 0  9990
2 36795  97.9960 215.5263 0010928 194.4818 165.6082 14.78656059859372
YAOGAN-10               
1 36834U 10038A   26164.98753046  .00001854  00000+0  22193-3 0  9994
2 36834  97.8979 188.4171 0001718  87.9239 358.0369 14.85341845856736
COSMO-SKYMED 4          
1 37216U 10060A   26164.93320218  .00000881  00000+0  11720-3 0  9993
2 37216  97.8882 348.5805 0001407  82.8555 277.2818 14.82152073844083
RESOURCESAT-2           
1 37387U 11015A   26164.92178982  .00000077  00000+0  55198-4 0  9996
2 37387  98.7644 232.3861 0010151 266.0050  93.9967 14.21605768785711
HAIYANG-2A              
1 37781U 11043A   26164.98093809 -.00000017  00000+0  28164-4 0  9993
2 37781  99.3391 167.7275 0006202  96.8293 263.3562 13.74458932746217
RASAT                   
1 37791U 11044D   26164.99539846  .00000467  00000+0  89563-4 0  9990
2 37791  98.0574 256.4410 0019897 199.1114 334.0369 14.68163426792719
SRMSAT                  
1 37841U 11058D   26164.49266569  .00000360  00000+0  51406-4 0  9992
2 37841  19.9718  81.8294 0011872 162.9750 353.0513 14.11574841757297
PLEIADES 1A             
1 38012U 11076F   26164.99127558  .00000181  00000+0  48835-4 0  9995
2 38012  98.1981 240.1367 0001615  97.6477  75.7725 14.58568651771522
ZIYUAN 1-02C (ZY 1-02C) 
1 38038U 11079A   26164.96633546  .00000317  00000+0  11852-3 0  9991
2 38038  98.4079 232.3418 0005677 327.8622 205.0306 14.38211991758745
ARIRANG-3 (KOMPSAT-3)   
1 38338U 12025B   26164.95333078  .00000391  00000+0  86826-4 0  9998
2 38338  98.1176 122.4690 0006565 117.5732 242.6137 14.62203644750875
EXACTVIEW-1 (ADS-1B)    
1 38709U 12039C   26164.94066819  .00000083  00000+0  55188-4 0  9995
2 38709  98.9774 282.2576 0010985 175.5247 184.6032 14.24983651722243
SPOT 6                  
1 38755U 12047A   26164.97356840  .00000204  00000+0  53733-4 0  9993
2 38755  98.2126 232.3200 0001487  93.1976 266.9393 14.58560868732589
PLEIADES 1B             
1 39019U 12068A   26164.92387909  .00000182  00000+0  48981-4 0  9999
2 39019  98.1952 240.0202 0001655  93.9388 266.2001 14.58558281720378
GOKTURK 2               
1 39030U 12073A   26164.89357962  .00000355  00000+0  59065-4 0  9997
2 39030  97.6823   2.4908 0001731  58.1621 301.9758 14.75539400724026
LANDSAT 8               
1 39084U 13008A   26164.93456747  .00000332  00000+0  83851-4 0  9996
2 39084  98.2302 235.1083 0001377  93.4430 266.6926 14.57092663697421
SARAL                   
1 39086U 13009A   26164.89853092  .00000091  00000+0  49456-4 0  9993
2 39086  98.5556 351.5074 0000866 328.9755  31.1378 14.32855223695132
GAOFEN-1                
1 39150U 13018A   26164.94571455  .00000142  00000+0  27608-4 0  9993
2 39150  97.9101 237.0791 0015708 277.8518  82.0908 14.76531704707767
VNREDSAT 1              
1 39160U 13021B   26164.94688741  .00000553  00000+0  11202-3 0  9993
2 39160  97.9087 218.4874 0001692  90.2119 269.9279 14.64853898699818
ARIRANG-5 (KOMPSAT-5)   
1 39227U 13042A   26164.90713657  .00001637  00000+0  12134-3 0  9990
2 39227  97.6209 351.6545 0005120 128.2809 231.8879 15.04484454703361
SKYSAT-A                
1 39418U 13066C   26164.88433934  .00003302  00000+0  19000-3 0  9992
2 39418  97.3818 214.3866 0020393 329.5993  30.4054 15.12959370687986
DUBAISAT-2              
1 39419U 13066D   26164.95660065  .00004484  00000+0  27807-3 0  9994
2 39419  97.4558 155.1846 0012692  51.3051 308.9311 15.10162969685904
GPM-CORE                
1 39574U 14009C   26164.90722376  .00012039  00000+0  26257-3 0  9996
2 39574  64.9721 319.1111 0011988 250.3832 109.6014 15.44505846697304
SENTINEL-1A             
1 39634U 14016A   26164.93892507 -.00000584  00000+0 -11414-3 0  9991
2 39634  98.1776 172.5188 0001420  82.9624 277.1737 14.59198006649540
KAZEOSAT 1              
1 39731U 14024A   26164.89938509 -.00000031  00000+0  36511-5 0  9999
2 39731  98.3212 237.4281 0001391  74.2070 285.9274 14.42077989638084
